HELIOS 2A               
1 28492U 04049A   23117.10242698  .00002472  00000+0  23382-3 0  9993
2 28492  98.2775  80.7349 0015155 129.4087 230.8470 14.94606434981940
SPIRALE A               
1 33751U 09008C   23116.71973573  .00000397  00000+0  10623-2 0  9993
2 33751   2.0702 319.5532 5481525 117.6625 307.4001  4.58995413209204
SPIRALE B               
1 33752U 09008D   23116.46560870  .00011166  00000+0  20794-2 0  9994
2 33752   2.1763 313.2806 6847858 121.4592 322.0912  2.84911740133950
SAPPHIRE                
1 39088U 13009C   23116.76957968  .00000218  00000+0  92355-4 0  9999
2 39088  98.4174 309.5227 0012462  67.8011 292.4495 14.34440380532038
