[{"OBJECT_NAME":"HELIOS 2A","OBJECT_ID":"2004-049A","EPOCH":"2023-04-27T02:27:29.691072","MEAN_MOTION":14.94606434,"ECCENTRICITY":0.0015155,"INCLINATION":98.2775,"RA_OF_ASC_NODE":80.7349,"ARG_OF_PERICENTER":129.4087,"MEAN_ANOMALY":230.847,"EPHEMERIS_TYPE":0,"CLASSIFICATION_TYPE":"U","NORAD_CAT_ID":28492,"ELEMENT_SET_NO":999,"REV_AT_EPOCH":98194,"BSTAR":0.00023382,"MEAN_MOTION_DOT":2.472e-5,"MEAN_MOTION_DDOT":0},{"OBJECT_NAME":"SPIRALE A","OBJECT_ID":"2009-008C","EPOCH":"2023-04-26T17:16:25.167072","MEAN_MOTION":4.58995413,"ECCENTRICITY":0.5481525,"INCLINATION":2.0702,"RA_OF_ASC_NODE":319.5532,"ARG_OF_PERICENTER":117.6625,"MEAN_ANOMALY":307.4001,"EPHEMERIS_TYPE":0,"CLASSIFICATION_TYPE":"U","NORAD_CAT_ID":33751,"ELEMENT_SET_NO":999,"REV_AT_EPOCH":20920,"BSTAR":0.0010623,"MEAN_MOTION_DOT":3.97e-6,"MEAN_MOTION_DDOT":0},{"OBJECT_NAME":"SPIRALE B","OBJECT_ID":"2009-008D","EPOCH":"2023-04-26T11:10:28.591680","MEAN_MOTION":2.8491174,"ECCENTRICITY":0.6847858,"INCLINATION":2.1763,"RA_OF_ASC_NODE":313.2806,"ARG_OF_PERICENTER":121.4592,"MEAN_ANOMALY":322.0912,"EPHEMERIS_TYPE":0,"CLASSIFICATION_TYPE":"U","NORAD_CAT_ID":33752,"ELEMENT_SET_NO":999,"REV_AT_EPOCH":13395,"BSTAR":0.0020794,"MEAN_MOTION_DOT":0.00011166,"MEAN_MOTION_DDOT":0},{"OBJECT_NAME":"SAPPHIRE","OBJECT_ID":"2013-009C","EPOCH":"2023-04-26T18:28:11.684352","MEAN_MOTION":14.3444038,"ECCENTRICITY":0.0012462,"INCLINATION":98.4174,"RA_OF_ASC_NODE":309.5227,"ARG_OF_PERICENTER":67.8011,"MEAN_ANOMALY":292.4495,"EPHEMERIS_TYPE":0,"CLASSIFICATION_TYPE":"U","NORAD_CAT_ID":39088,"ELEMENT_SET_NO":999,"REV_AT_EPOCH":53203,"BSTAR":9.2355e-5,"MEAN_MOTION_DOT":2.18e-6,"MEAN_MOTION_DDOT":0}]
